CUTE-1 (CO-55)          
1 27844U 03031E   23018.59028411  .00000750  00000+0  35510-3 0  9994
2 27844  98.6794  28.0439 0009582 193.1696 166.9233 14.22593177 14461
CUBESAT XI-IV (CO-57)   
1 27848U 03031J   23018.48073867  .00000655  00000+0  31533-3 0  9996
2 27848  98.6833  28.4030 0009187 208.6891 151.3783 14.22130174 14226
CUBESAT XI-V            
1 28895U 05043F   23018.32042834  .00003539  00000+0  67006-3 0  9995
2 28895  98.1304 151.8206 0016392 180.9839 179.1334 14.64862135918861
CUTE-1.7+APD II (CO-65) 
1 32785U 08021C   23018.79641627  .00007308  00000+0  74996-3 0  9997
2 32785  97.6864 348.2994 0011007 234.7723 125.2466 14.90655624798555
AAUSAT-II               
1 32788U 08021F   23018.85983370  .00015146  00000+0  12219-2 0  9999
2 32788  97.5542   2.1180 0010521 115.7942 244.4369 14.99919795800690
DELFI-C3 (DO-64)        
1 32789U 08021G   23018.57631221  .00045849  00000+0  20637-2 0  9990
2 32789  97.3220  42.7435 0006755 299.6014  60.4548 15.20914025804539
SEEDS II (CO-66)        
1 32791U 08021J   23018.67170519  .00010283  00000+0  96187-3 0  9990
2 32791  97.6379 353.4713 0012346 183.3992 176.7146 14.94232197799315
SWISSCUBE               
1 35932U 09051B   23018.60064844  .00002240  00000+0  50631-3 0  9998
2 35932  98.5412 245.2663 0008581 103.6399 256.5755 14.57222391707425
BEESAT-1                
1 35933U 09051C   23018.62463121  .00001874  00000+0  42576-3 0  9993
2 35933  98.5347 246.7576 0006682 113.4002 246.7899 14.57194322707503
ITUPSAT1                
1 35935U 09051E   23018.91249064  .00001760  00000+0  40837-3 0  9997
2 35935  98.5449 247.0484 0008952 117.8785 242.3320 14.56280219707239
TISAT 1                 
1 36799U 10035E   23018.85973798  .00008037  00000+0  75307-3 0  9995
2 36799  98.1570 242.6613 0012651 104.2729 255.9896 14.94261921679915
M-CUBED & EXP-1 PRIME   
1 37855U 11061F   23018.92797497  .00024999  00000+0  96302-3 0  9990
2 37855 101.7121 258.3026 0139116 134.2966 226.9762 15.17766820613851
AEROCUBE 4.5A           
1 38767U 12048K   23018.66712885  .00022116  00000+0  15008-2 0  9990
2 38767  64.6642 154.0214 0152437 202.5992 156.8365 14.97372600182979
AEROCUBE 4.5B           
1 38768U 12048L   23018.60482646  .00025770  00000+0  15553-2 0  9998
2 38768  64.6663 103.3711 0134477 197.7629 161.8765 15.03337129183446
STRAND-1                
1 39090U 13009E   23018.77259316  .00000724  00000+0  26688-3 0  9993
2 39090  98.3913 216.1876 0008936 357.1989   2.9145 14.35418914518280
BRITE-AUSTRIA           
1 39091U 13009F   23019.04096340  .00000508  00000+0  19181-3 0  9991
2 39091  98.3934 215.6527 0010476   2.3229 357.8004 14.35363604518369
SOMP                    
1 39134U 13015E   23018.57836851  .00059247  00000+0  15548-2 0  9998
2 39134  64.8586  71.9562 0025362 255.5658 104.2663 15.37964688539818
BEESAT-3                
1 39135U 13015F   23019.27376723  .00034901  00000+0  11617-2 0  9997
2 39135  64.8639 111.9877 0031707 253.5840 106.1807 15.30489518539484
BEESAT-2                
1 39136U 13015G   23018.63946630  .00038863  00000+0  13667-2 0  9995
2 39136  64.8722 123.7519 0026265 289.0656  70.7632 15.28823475538734
NEE-01 PEGASO           
1 39151U 13018B   23019.27431493  .00003936  00000+0  50580-3 0  9991
2 39151  97.9999 129.4320 0015360 276.4397  83.5066 14.81666796525630
ESTCUBE 1               
1 39161U 13021C   23019.14240330  .00003213  00000+0  50148-3 0  9998
2 39161  97.8893  95.6097 0010318  87.8641 272.3760 14.73504758521222
POPACS 1                
1 39268U 13055D   23018.69757613  .00030214  00000+0  73010-3 0  9993
2 39268  80.9952   6.6375 0536765 266.7632  87.2052 14.58820145484585
POPACS 2                
1 39269U 13055E   23018.55730750  .00015961  00000+0  42003-3 0  9992
2 39269  81.0099  70.6384 0628010  72.8818 294.0130 14.37854156481036
POPACS 3                
1 39270U 13055F   23018.94497964  .00018455  00000+0  54891-3 0  9993
2 39270  81.0146 107.2125 0677292 176.1054 184.5809 14.24863903479980
ZACUBE-1 (TSHEPISOSAT)  
1 39417U 13066B   23018.84084324  .00007175  00000+0  85518-3 0  9996
2 39417  97.6653 346.0833 0057999  59.1710 301.5194 14.83374108495045
WNISAT-1                
1 39423U 13066H   23019.09370202  .00001768  00000+0  35425-3 0  9998
2 39423  97.7212 249.3356 0173469 183.2982 176.7099 14.53793706485771
TRITON-1                
1 39427U 13066M   23018.80716181  .00006259  00000+0  96426-3 0  9998
2 39427  97.8296 310.4866 0108915 296.4939  62.5130 14.69819684490402
DELFI-N3XT              
1 39428U 13066N   23018.80060926  .00011469  00000+0  17133-2 0  9994
2 39428  97.8288 309.1945 0113447 309.3786  49.7414 14.70591873490161
GOMX-1                  
1 39430U 13066Q   23018.99446467  .00003021  00000+0  53623-3 0  9995
2 39430  97.7960 278.7709 0149199  84.9752 276.8504 14.60852828487754
CUBEBUG-2 (LO-74)       
1 39440U 13066AA  23018.83182058  .00004952  00000+0  65979-3 0  9993
2 39440  97.7550 332.7735 0078187 151.5820 208.9689 14.77945633492082
NEE-02 KRYSAOR          
1 39441U 13066AB  23018.83094696  .00003331  00000+0  46177-3 0  9993
2 39441  97.7663 329.8036 0079949 166.7853 193.5478 14.76411939491800
FUNCUBE-1 (AO-73)       
1 39444U 13066AE  23018.88972974  .00008125  00000+0  93848-3 0  9998
2 39444  97.6523 348.5819 0056313  46.0874 314.4969 14.84692459493478
UWE-3                   
1 39446U 13066AG  23018.88467228  .00005648  00000+0  71412-3 0  9991
2 39446  97.7154 339.1050 0068997 106.3847 254.4965 14.80534196492326
AEROCUBE 5A             
1 39465U 13072D   23019.06521802  .00158607  00000+0  49985-2 0  9992
2 39465 120.4808  50.1287 0146676 144.5838 216.5077 15.22102830182113
BRITE-CA1 (TORONTO)     
1 40020U 14033L   23019.12982725  .00002181  00000+0  37380-3 0  9993
2 40020  97.8008 172.5177 0085114 296.1394  63.1074 14.67399602459391
DUCHIFAT-1              
1 40021U 14033M   23018.31533871  .00012378  00000+0  11393-2 0  9992
2 40021  98.0400 337.9789 0013442  56.3558 303.8942 14.94825453466776
NANOSATC-BR1            
1 40024U 14033Q   23018.83962377  .00010085  00000+0  96487-3 0  9990
2 40024  98.0100 330.6733 0012779  60.7028 299.5466 14.93353781466106
QB50P1                  
1 40025U 14033R   23018.81085986  .00007979  00000+0  79432-3 0  9990
2 40025  97.9820 323.2757 0013369  70.8558 289.4106 14.91838028465854
QB50P2                  
1 40032U 14033Y   23018.79045975  .00007808  00000+0  79058-3 0  9994
2 40032  97.9559 317.7628 0012894  69.1943 291.0655 14.91168725465697
PERSEUS-M2              
1 40037U 14033AD  23018.79348419  .00003436  00000+0  38307-3 0  9993
2 40037  97.9044 304.9028 0015655  91.3332 268.9678 14.87630635465136
PERSEUS-M1              
1 40039U 14033AF  23018.77812705  .00003348  00000+0  37695-3 0  9998
2 40039  97.8923 302.2231 0015504  90.7045 269.5948 14.87241844465000
POLYITAN-1              
1 40042U 14033AJ  23018.80519586  .00010921  00000+0  10753-2 0  9997
2 40042  97.9931 324.7994 0015430  63.3741 296.9056 14.92161010465743
TIGRISAT                
1 40043U 14033AK  23018.78123929  .00004513  00000+0  65021-3 0  9996
2 40043  97.6540 201.5243 0058478 177.2785 182.8755 14.75615717461371
AEROCUBE 6A             
1 40045U 14033AM  23018.81532610  .00006300  00000+0  87368-3 0  9997
2 40045  97.6549 210.9176 0056284 163.5046 196.8013 14.77171966461560
AEROCUBE 6B             
1 40046U 14033AN  23018.78832364  .00007850  00000+0  10711-2 0  9991
2 40046  97.6478 209.3054 0054892 161.2185 199.1068 14.77838030461570
UKUBE-1                 
1 40074U 14037F   23019.11781846  .00006658  00000+0  75844-3 0  9996
2 40074  98.3582 275.8657 0003659 332.7467  27.3562 14.86526045462094
BRITE-PL2 (HEWELIUSZ)   
1 40119U 14049B   23018.84377568  .00003244  00000+0  37938-3 0  9990
2 40119  97.8823 117.3318 0015690 256.5433 103.4034 14.85708635455980
FIREBIRD 4              
1 40378U 15003C   23019.04073213  .00078722  00000+0  17029-2 0  9992
2 40378  99.0795 298.5561 0079390  11.1519 349.1458 15.40837459441486
GRIFEX                  
1 40379U 15003D   23018.97092972  .00035370  00000+0  10565-2 0  9997
2 40379  99.0853 281.3533 0103535  61.8292 299.3355 15.29301808440493
CP10 (EXOCUBE)          
1 40380U 15003E   23018.66269459  .00026944  00000+0  91802-3 0  9992
2 40380  99.0949 272.4927 0114638  90.9948 270.4421 15.24209188439884
EXACTVIEW 9             
1 40936U 15052G   23017.37850784  .00004274  00000+0  49372-3 0  9994
2 40936   6.0039  86.2164 0010766 305.6159  54.2966 14.77704906394900
AEROCUBE 5C             
1 40965U 15058B   23018.65102376  .00006172  00000+0  68776-3 0  9999
2 40965  64.7731 137.6873 0168584 128.0922 233.5525 14.78095857180733
AEROCUBE 7              
1 40966U 15058C   23018.60833771  .00007295  00000+0  79947-3 0  9994
2 40966  64.7723 134.6114 0166406 127.9523 233.6754 14.78808098180730
ATHENOXAT 1             
1 41168U 15077C   23019.03534053  .00070213  00000+0  22855-2 0  9994
2 41168  14.9964 284.3564 0006438  34.1255  84.3410 15.30024377393252
GALASSIA                
1 41170U 15077E   23018.37148355  .00040289  00000+0  14536-2 0  9996
2 41170  14.9877 283.8854 0008948  54.5694 305.5463 15.26527218393034
VELOX-II                
1 41171U 15077F   23018.32083741  .00027562  00000+0  11985-2 0  9993
2 41171  14.9926  10.3674 0007623 232.0703 127.8930 15.20094417392369
HORYU-4                 
1 41340U 16012D   23018.79403309  .00011338  00000+0  76966-3 0  9993
2 41340  31.0053  62.3283 0012804 185.8613 174.1875 15.05122594380173
E-ST@R-II               
1 41459U 16025D   23019.10046566  .00036197  00000+0  13482-2 0  9995
2 41459  98.1925 206.3498 0128040 254.5415 104.1637 15.19937772370173
AAUSAT 4                
1 41460U 16025E   23019.11877311  .00074002  00000+0  21056-2 0  9991
2 41460  98.1754 215.0929 0099182 221.7170 263.1643 15.31008403370783
